{
    "links": {
        "self": "http://www.neowsapp.com/rest/v1/neo/3508155?api_key=iIulBulltgU6a56xZRHN4H3l9WmuAYTsLGpBGhQ2"
    },
    "id": "3508155",
    "neo_reference_id": "3508155",
    "name": "(2010 DU1)",
    "designation": "2010 DU1",
    "nasa_jpl_url": "http://ssd.jpl.nasa.gov/sbdb.cgi?sstr=3508155",
    "absolute_magnitude_h": 26.5,
    "estimated_diameter": {
        "kilometers": {
            "estimated_diameter_min": 0.0133215567,
            "estimated_diameter_max": 0.0297879063
        },
        "meters": {
            "estimated_diameter_min": 13.3215566698,
            "estimated_diameter_max": 29.7879062798
        },
        "miles": {
            "estimated_diameter_min": 0.008277629,
            "estimated_diameter_max": 0.0185093411
        },
        "feet": {
            "estimated_diameter_min": 43.7058959846,
            "estimated_diameter_max": 97.7293544391
        }
    },
    "is_potentially_hazardous_asteroid": false,
    "close_approach_data": [
        {
            "close_approach_date": "2010-02-23",
            "close_approach_date_full": "2010-Feb-23 23:45",
            "epoch_date_close_approach": 1266968700000,
            "relative_velocity": {
                "kilometers_per_second": "14.9893996136",
                "kilometers_per_hour": "53961.8386088009",
                "miles_per_hour": "33529.787995563"
            },
            "miss_distance": {
                "astronomical": "0.009509721",
                "lunar": "3.699281469",
                "kilometers": "1422634.00589427",
                "miles": "883983.780390126"
            },
            "orbiting_body": "Moon"
        },
        {
            "close_approach_date": "2010-02-24",
            "close_approach_date_full": "2010-Feb-24 04:43",
            "epoch_date_close_approach": 1266986580000,
            "relative_velocity": {
                "kilometers_per_second": "14.1587911316",
                "kilometers_per_hour": "50971.6480739083",
                "miles_per_hour": "31671.7998823682"
            },
            "miss_distance": {
                "astronomical": "0.0110034185",
                "lunar": "4.2803297965",
                "kilometers": "1646087.970318595",
                "miles": "1022831.635422811"
            },
            "orbiting_body": "Earth"
        },
        {
            "close_approach_date": "2012-08-09",
            "close_approach_date_full": "2012-Aug-09 05:47",
            "epoch_date_close_approach": 1344491220000,
            "relative_velocity": {
                "kilometers_per_second": "26.8631588074",
                "kilometers_per_hour": "96707.3717066303",
                "miles_per_hour": "60090.199936267"
            },
            "miss_distance": {
                "astronomical": "0.4272380646",
                "lunar": "166.1956071294",
                "kilometers": "63913904.447082402",
                "miles": "39714258.6487730676"
            },
            "orbiting_body": "Earth"
        }
    ],
    "orbital_data": {
        "orbit_id": "7",
        "orbit_determination_date": "2017-04-06 08:58:16",
        "first_observation_date": "2010-02-18",
        "last_observation_date": "2010-02-22",
        "data_arc_in_days": 4,
        "observations_used": 23,
        "orbit_uncertainty": "8",
        "minimum_orbit_intersection": ".00774709",
        "jupiter_tisserand_invariant": "4.037",
        "epoch_osculation": "2455246.5",
        "eccentricity": ".540158082623846",
        "semi_major_axis": "1.689147804102074",
        "inclination": "3.709549863016957",
        "ascending_node_longitude": "147.8308731358486",
        "orbital_period": "801.8625048082955",
        "perihelion_distance": ".7767409649700181",
        "perihelion_argument": "74.25431783082601",
        "aphelion_distance": "2.601554643234131",
        "perihelion_time": "2455296.353525861970",
        "mean_anomaly": "337.6180215402391",
        "mean_motion": ".4489547744673093",
        "equinox": "J2000",
        "orbit_class": {
            "orbit_class_type": "APO",
            "orbit_class_description": "Near-Earth asteroid orbits which cross the Earth’s orbit similar to that of 1862 Apollo",
            "orbit_class_range": "a (semi-major axis) > 1.0 AU; q (perihelion) < 1.017 AU"
        }
    },
    "is_sentry_object": false
}